GORIZONT 1 [-]          
1 11158U 78118A   22032.96570311 -.00000034  00000+0  00000+0 0  9998
2 11158  11.1741 211.0544 3515035 273.5187  47.4042  1.00267076106912
GORIZONT 2 [-]          
1 11440U 79062A   22032.81959166 -.00000078  00000+0  00000+0 0  9992
2 11440   9.5991 303.4448 0002801 331.5195 226.1854  1.00236610122012
GORIZONT 3 [-]          
1 11648U 79105A   22032.81339917  .00000135  00000+0  00000+0 0  9999
2 11648   9.7529 304.8390 0011634 207.0249 315.5262  1.00242776106471
GORIZONT 4 [-]          
1 11841U 80049A   22032.81479465  .00000014  00000+0  00000+0 0  9992
2 11841  10.8904 310.4156 0002112  16.6801 147.6152  0.98628060217776
GORIZONT 5 [-]          
1 13092U 82020A   22032.62616791 -.00000202  00000+0  00000+0 0  9997
2 13092  11.8583 315.6233 0032499 207.1798  12.1436  0.98533999105869
GORIZONT 6 [-]          
1 13624U 82103A   22033.48603091  .00000115  00000+0  00000+0 0  9996
2 13624  10.7675 315.6136 0000742 118.7440  85.5569  1.00195866104949
GORIZONT 7 [-]          
1 14160U 83066A   22032.39076858 -.00000037  00000+0  00000+0 0  9999
2 14160  12.3855 324.7425 0010218 323.3630 255.7195  0.98346771139043
GORIZONT 8 [-]          
1 14532U 83118A   22032.55458076 -.00000082  00000+0  00000+0 0  9994
2 14532  12.5466 326.5539 0029074 142.1431  75.0444  0.98269851104818
GORIZONT 9 [-]          
1 14940U 84041A   22032.82334204 -.00000275  00000+0  00000+0 0  9993
2 14940  11.7442 324.6588 0003093 208.3599 348.3722  1.00300560105938
GORIZONT 10 [-]         
1 15144U 84078A   22033.29065740 -.00000224  00000+0  00000+0 0  9992
2 15144  11.8295 325.6621 0001611  44.3426 144.1431  1.00173472138601
GORIZONT 11 [-]         
1 15484U 85007A   22032.23883491  .00000075  00000+0  00000+0 0  9999
2 15484  11.9976 327.6246 0002685 109.8911 153.8062  1.00325428136614
GORIZONT 12 [-]         
1 16769U 86044A   22032.74289213 -.00000363  00000+0  00000+0 0  9997
2 16769  12.5778 332.9195 0001058 343.5138 191.9370  1.00259033131259
GORIZONT 13 [-]         
1 17083U 86090A   22031.86147494 -.00000073  00000+0  00000+0 0  9992
2 17083  14.4059 339.9609 0015346 340.1454 203.8337  0.96725273103217
GORIZONT 14 [-]         
1 17969U 87040A   22032.63295391 -.00000161  00000+0  00000+0 0  9995
2 17969  13.4199 331.4823 0029527 167.1831  47.5811  0.97659844104268
GORIZONT 15 [-]         
1 19017U 88028A   22032.63974028 -.00000155  00000+0  00000+0 0  9992
2 19017  14.6633 342.8490 0035770 149.4853  63.1796  0.97828730103885
GORIZONT 16 [-]         
1 19397U 88071A   22032.68968462 -.00000326  00000+0  00000+0 0  9991
2 19397  13.5206 341.5445 0015637  50.4383 130.1684  0.99987017122276
GORIZONT 17 [-]         
1 19765U 89004A   22033.22838355 -.00000265  00000+0  00000+0 0  9997
2 19765  14.0381 344.8382 0022021 122.2386  72.3114  0.99068107119751
GORIZONT 18 [-]         
1 20107U 89052A   22032.82508640 -.00000174  00000+0  00000+0 0  9997
2 20107  14.0691 346.1115 0034774 315.7638 228.9573  0.99398528118540
GORIZONT 19 [-]         
1 20263U 89081A   22033.02769439  .00000118  00000+0  00000+0 0  9997
2 20263  13.8019 345.3318 0000961 246.6088 308.4455  1.00242307118484
GORIZONT 20 [-]         
1 20659U 90054A   22032.80770031 -.00000107  00000+0  00000+0 0  9992
2 20659  14.2153 348.1770 0005301 153.0859 354.3549  1.00322180115681
GORIZONT 21 [-]         
1 20923U 90094A   22033.05935462  .00000093  00000+0  00000+0 0  9992
2 20923  14.2183 348.9497 0002438 204.2010 157.3175  1.00334378114438
GORIZONT 22 [-]         
1 20953U 90102A   22032.82552250 -.00000357  00000+0  00000+0 0  9993
2 20953  14.1771 349.3124 0004315  14.4077 168.9197  1.00373132114360
GORIZONT 23 [-]         
1 21533U 91046A   22032.56967903 -.00000037  00000+0  00000+0 0  9997
2 21533  14.8974 353.4065 0005219 329.8730 280.0145  0.98906685104932
GORIZONT 24 [-]         
1 21759U 91074A   22032.81299469 -.00000224  00000+0  00000+0 0  9999
2 21759  15.0333 355.2747 0016113 223.0745 177.5811  0.98444882109242
GORIZONT 25 [-]         
1 21922U 92017A   22032.81299469 -.00000284  00000+0  00000+0 0  9995
2 21922  14.5801 354.6525 0029431  72.9154 325.5786  0.99856836109004
GORIZONT 26 [-]         
1 22041U 92043A   22032.86023538 -.00000117  00000+0  00000+0 0  9999
2 22041  14.7309 356.6141 0029234 232.8144 129.9420  0.99241227107635
GORIZONT 27 [-]         
1 22245U 92082A   22033.27808583 -.00000253  00000+0  00000+0 0  9996
2 22245  14.6518 356.2691 0014076   3.8929  20.6991  1.00219058111166
GORIZONT 28 [-]         
1 22880U 93069A   22032.80743735 -.00000296  00000+0  00000+0 0  9999
2 22880  14.7517   0.0830 0032984 124.0341 263.3295  0.99656533103223
GORIZONT 29 [-]         
1 22907U 93072A   22033.32868456 -.00000349  00000+0  00000+0 0  9998
2 22907  14.6678 359.5631 0011980 344.0182  14.7506  1.00125705103229
GORIZONT 30 [-]         
1 23108U 94030A   22032.86036970 -.00000372  00000+0  00000+0 0  9999
2 23108  14.6740   0.4972 0000649  15.3557 173.0406  1.00371693101480
GORIZONT 31 [-]         
1 23775U 96005A   22033.24531771 -.00000150  00000+0  00000+0 0  9999
2 23775  14.5184   6.6275 0016854 196.7328 185.3283  0.99901742 95101
GORIZONT 32 [-]         
1 23880U 96034A   22032.79377507 -.00000314  00000+0  00000+0 0  9994
2 23880  14.4614   7.1575 0009917 351.4853   3.3121  1.00172137 94042
GORIZONT 33 [-]         
1 26372U 00029A   22032.93009719 -.00000217  00000+0  00000+0 0  9997
2 26372  13.0608  18.1803 0003737  50.7524 306.2716  1.00385414 79405
